{
    "links": {
        "self": "http://www.neowsapp.com/rest/v1/neo/3789388?api_key=iIulBulltgU6a56xZRHN4H3l9WmuAYTsLGpBGhQ2"
    },
    "id": "3789388",
    "neo_reference_id": "3789388",
    "name": "(2017 VS13)",
    "designation": "2017 VS13",
    "nasa_jpl_url": "http://ssd.jpl.nasa.gov/sbdb.cgi?sstr=3789388",
    "absolute_magnitude_h": 24.6,
    "estimated_diameter": {
        "kilometers": {
            "estimated_diameter_min": 0.0319561887,
            "estimated_diameter_max": 0.0714562102
        },
        "meters": {
            "estimated_diameter_min": 31.9561886721,
            "estimated_diameter_max": 71.4562101727
        },
        "miles": {
            "estimated_diameter_min": 0.0198566489,
            "estimated_diameter_max": 0.0444008168
        },
        "feet": {
            "estimated_diameter_min": 104.8431420431,
            "estimated_diameter_max": 234.436392583
        }
    },
    "is_potentially_hazardous_asteroid": false,
    "close_approach_data": [
        {
            "close_approach_date": "2012-10-19",
            "close_approach_date_full": "2012-Oct-19 19:23",
            "epoch_date_close_approach": 1350674580000,
            "relative_velocity": {
                "kilometers_per_second": "8.1435548961",
                "kilometers_per_hour": "29316.7976261263",
                "miles_per_hour": "18216.3179471894"
            },
            "miss_distance": {
                "astronomical": "0.1328470903",
                "lunar": "51.6775181267",
                "kilometers": "19873641.744577661",
                "miles": "12348908.3535912818"
            },
            "orbiting_body": "Earth"
        },
        {
            "close_approach_date": "2017-10-08",
            "close_approach_date_full": "2017-Oct-08 12:15",
            "epoch_date_close_approach": 1507464900000,
            "relative_velocity": {
                "kilometers_per_second": "4.8922795699",
                "kilometers_per_hour": "17612.2064514968",
                "miles_per_hour": "10943.5401698203"
            },
            "miss_distance": {
                "astronomical": "0.1004529797",
                "lunar": "39.0762091033",
                "kilometers": "15027551.798273239",
                "miles": "9337687.6931151382"
            },
            "orbiting_body": "Earth"
        }
    ],
    "orbital_data": {
        "orbit_id": "4",
        "orbit_determination_date": "2018-02-10 07:09:22",
        "first_observation_date": "2017-10-22",
        "last_observation_date": "2017-11-25",
        "data_arc_in_days": 34,
        "observations_used": 19,
        "orbit_uncertainty": "8",
        "minimum_orbit_intersection": ".0964563",
        "jupiter_tisserand_invariant": "4.701",
        "epoch_osculation": "2458064.5",
        "eccentricity": ".2786646540999627",
        "semi_major_axis": "1.402369111579424",
        "inclination": "6.680626513548809",
        "ascending_node_longitude": "63.99216230576653",
        "orbital_period": "606.5853721751168",
        "perihelion_distance": "1.011578408180672",
        "perihelion_argument": "283.5587203983323",
        "aphelion_distance": "1.793159814978176",
        "perihelion_time": "2458008.047722561329",
        "mean_anomaly": "33.50364319707747",
        "mean_motion": ".5934861216799514",
        "equinox": "J2000",
        "orbit_class": {
            "orbit_class_type": "APO",
            "orbit_class_description": "Near-Earth asteroid orbits which cross the Earth’s orbit similar to that of 1862 Apollo",
            "orbit_class_range": "a (semi-major axis) > 1.0 AU; q (perihelion) < 1.017 AU"
        }
    },
    "is_sentry_object": false
}